[{"OBJECT_NAME":"STARLINK-32417","OBJECT_ID":"2024-193N","EPOCH":"2026-03-09T07:52:53.671872","MEAN_MOTION":15.3019163,"ECCENTRICITY":0.00012737,"INCLINATION":53.1609,"RA_OF_ASC_NODE":92.5184,"ARG_OF_PERICENTER":89.2474,"MEAN_ANOMALY":270.8673,"EPHEMERIS_TYPE":0,"CLASSIFICATION_TYPE":"U","NORAD_CAT_ID":61673,"ELEMENT_SET_NO":999,"REV_AT_EPOCH":7647,"BSTAR":3.5054672e-5,"MEAN_MOTION_DOT":6.79e-6,"MEAN_MOTION_DDOT":0},{"OBJECT_NAME":"COSMOS 1461","OBJECT_ID":"1983-044A","EPOCH":"2026-03-09T23:27:40.254336","MEAN_MOTION":15.35034079,"ECCENTRICITY":0.00529955,"INCLINATION":64.9902,"RA_OF_ASC_NODE":19.3405,"ARG_OF_PERICENTER":227.9657,"MEAN_ANOMALY":131.6963,"EPHEMERIS_TYPE":0,"CLASSIFICATION_TYPE":"U","NORAD_CAT_ID":14064,"ELEMENT_SET_NO":999,"REV_AT_EPOCH":20189,"BSTAR":0.00068784348,"MEAN_MOTION_DOT":0.00024451,"MEAN_MOTION_DDOT":0}]
